{
  "type": "FeatureCollection",
  "name": "Offline simplified Indian Ocean coastlines",
  "features": [
    {
      "type": "Feature",
      "properties": {
        "name": "Arabian Peninsula",
        "kind": "land"
      },
      "geometry": {
        "type": "Polygon",
        "coordinates": [
          [
            [
              43,
              30
            ],
            [
              48,
              29
            ],
            [
              52,
              26
            ],
            [
              56,
              24
            ],
            [
              59,
              21
            ],
            [
              57,
              17
            ],
            [
              53,
              15
            ],
            [
              50,
              12
            ],
            [
              47,
              13
            ],
            [
              44,
              17
            ],
            [
              42,
              22
            ],
            [
              43,
              30
            ]
          ]
        ]
      }
    },
    {
      "type": "Feature",
      "properties": {
        "name": "Indian Subcontinent",
        "kind": "land"
      },
      "geometry": {
        "type": "Polygon",
        "coordinates": [
          [
            [
              68.1,
              23.8
            ],
            [
              69.2,
              22.7
            ],
            [
              68.8,
              21.4
            ],
            [
              70.0,
              20.7
            ],
            [
              71.0,
              19.8
            ],
            [
              72.2,
              18.7
            ],
            [
              72.8,
              17.2
            ],
            [
              73.3,
              15.0
            ],
            [
              74.0,
              13.1
            ],
            [
              75.2,
              10.7
            ],
            [
              76.8,
              8.1
            ],
            [
              78.1,
              7.7
            ],
            [
              79.2,
              8.9
            ],
            [
              80.2,
              10.6
            ],
            [
              80.4,
              12.2
            ],
            [
              81.4,
              14.5
            ],
            [
              82.3,
              16.3
            ],
            [
              83.8,
              17.8
            ],
            [
              85.1,
              19.1
            ],
            [
              86.8,
              20.2
            ],
            [
              88.0,
              21.5
            ],
            [
              89.0,
              22.1
            ],
            [
              90.4,
              22.0
            ],
            [
              91.4,
              22.4
            ],
            [
              92.3,
              24.4
            ],
            [
              91.4,
              25.7
            ],
            [
              89.8,
              26.0
            ],
            [
              89.0,
              26.8
            ],
            [
              87.2,
              27.4
            ],
            [
              85.5,
              27.1
            ],
            [
              83.8,
              27.5
            ],
            [
              81.7,
              29.0
            ],
            [
              80.1,
              29.8
            ],
            [
              78.6,
              31.7
            ],
            [
              77.3,
              34.2
            ],
            [
              75.5,
              35.0
            ],
            [
              74.4,
              33.8
            ],
            [
              73.4,
              32.2
            ],
            [
              72.2,
              30.5
            ],
            [
              70.6,
              29.1
            ],
            [
              69.4,
              27.1
            ],
            [
              68.0,
              25.1
            ],
            [
              68.1,
              23.8
            ]
          ]
        ]
      }
    },
    {
      "type": "Feature",
      "properties": {
        "name": "Myanmar and Southeast Asia",
        "kind": "land"
      },
      "geometry": {
        "type": "Polygon",
        "coordinates": [
          [
            [
              92,
              27
            ],
            [
              96,
              26
            ],
            [
              98,
              22
            ],
            [
              98,
              18
            ],
            [
              100,
              15
            ],
            [
              101,
              12
            ],
            [
              104,
              11
            ],
            [
              105,
              8
            ],
            [
              103,
              7
            ],
            [
              100,
              10
            ],
            [
              98,
              14
            ],
            [
              96,
              17
            ],
            [
              94,
              21
            ],
            [
              92,
              27
            ]
          ]
        ]
      }
    },
    {
      "type": "Feature",
      "properties": {
        "name": "Sri Lanka",
        "kind": "land"
      },
      "geometry": {
        "type": "Polygon",
        "coordinates": [
          [
            [
              79.6,
              9.9
            ],
            [
              80.7,
              9.5
            ],
            [
              81.0,
              8.2
            ],
            [
              80.4,
              6.0
            ],
            [
              79.8,
              6.0
            ],
            [
              79.3,
              7.5
            ],
            [
              79.6,
              9.9
            ]
          ]
        ]
      }
    },
    {
      "type": "Feature",
      "properties": {
        "name": "Andaman and Nicobar Islands",
        "kind": "land"
      },
      "geometry": {
        "type": "MultiPoint",
        "coordinates": [
          [
            92.7,
            13.2
          ],
          [
            92.8,
            11.5
          ],
          [
            93.0,
            9.0
          ],
          [
            92.8,
            7.0
          ]
        ]
      }
    },
    {
      "type": "Feature",
      "properties": {
        "name": "Somali Coast",
        "kind": "land"
      },
      "geometry": {
        "type": "Polygon",
        "coordinates": [
          [
            [
              43,
              12
            ],
            [
              46,
              11
            ],
            [
              49,
              8
            ],
            [
              51,
              4
            ],
            [
              50,
              0
            ],
            [
              47,
              -2
            ],
            [
              44,
              2
            ],
            [
              42,
              7
            ],
            [
              43,
              12
            ]
          ]
        ]
      }
    },
    {
      "type": "Feature",
      "properties": {
        "name": "Sumatra",
        "kind": "land"
      },
      "geometry": {
        "type": "Polygon",
        "coordinates": [
          [
            [
              95,
              5
            ],
            [
              98,
              4
            ],
            [
              101,
              1
            ],
            [
              104,
              -3
            ],
            [
              105,
              -5
            ],
            [
              103,
              -6
            ],
            [
              100,
              -3
            ],
            [
              98,
              0
            ],
            [
              96,
              3
            ],
            [
              95,
              5
            ]
          ]
        ]
      }
    },
    {
      "type": "Feature",
      "properties": {
        "name": "Maldives",
        "kind": "land"
      },
      "geometry": {
        "type": "MultiPoint",
        "coordinates": [
          [
            73.5,
            7
          ],
          [
            73.4,
            4
          ],
          [
            73.2,
            1
          ],
          [
            73,
            -2
          ],
          [
            72.9,
            -4
          ]
        ]
      }
    }
  ]
}